OBJECT_NAME,OBJECT_ID,EPOCH,MEAN_MOTION,ECCENTRICITY,INCLINATION,RA_OF_ASC_NODE,ARG_OF_PERICENTER,MEAN_ANOMALY,EPHEMERIS_TYPE,CLASSIFICATION_TYPE,NORAD_CAT_ID,ELEMENT_SET_NO,REV_AT_EPOCH,BSTAR,MEAN_MOTION_DOT,MEAN_MOTION_DDOT
STARLINK-34604,2025-150M,2026-07-09T16:58:57.168768,14.98334482,.00036033,70.0005,186.8115,267.2678,92.8068,0,U,64801,999,5479,.13631674E-3,.1534E-4,0
STARLINK-34658,2025-150N,2026-07-09T23:59:34.291680,14.98334343,.00035063,69.9998,186.2226,260.4291,99.6472,0,U,64802,999,5483,.26798183E-3,.3106E-4,0
STARLINK-34620,2025-150P,2026-07-09T23:59:48.436224,14.98334261,.00039149,69.9997,186.2223,265.0342,95.0370,0,U,64803,999,5483,.24758326E-3,.2863E-4,0
STARLINK-34633,2025-150Q,2026-07-09T21:41:35.683008,14.98328600,.00040754,69.9999,186.2881,266.6128,93.4565,0,U,64804,999,5482,.35638216E-3,.4162E-4,0
STARLINK-34624,2025-150R,2026-07-09T17:23:00.149856,14.98335721,.00038039,70.0006,186.8704,265.1939,94.8786,0,U,64805,999,5479,.25307109E-3,.2928E-4,0
STARLINK-34664,2025-150S,2026-07-09T00:09:32.460480,14.98341150,.00039425,69.9996,188.3770,263.6640,96.4071,0,U,64806,999,5469,.25220597E-3,.2918E-4,0
STARLINK-34663,2025-150T,2026-07-09T17:04:58.021824,14.98337514,.00036846,70.0003,186.8279,263.6468,96.4271,0,U,64807,999,5479,.1602554E-3,.182E-4,0
STARLINK-34696,2025-150U,2026-07-09T17:10:58.616544,14.98334271,.00041306,70.0003,186.8394,263.1935,96.8754,0,U,64808,999,5479,.15137382E-3,.1714E-4,0
STARLINK-34675,2025-150V,2026-07-09T16:52:56.630208,14.98336775,.00040915,70.0002,186.7993,264.5054,95.5639,0,U,64809,999,5479,.24345193E-3,.2814E-4,0
STARLINK-34608,2025-150W,2026-07-09T16:28:53.508288,14.98339761,.00039937,70.0004,186.7409,266.7969,93.2733,0,U,64810,999,5479,.22701142E-3,.2617E-4,0
STARLINK-34669,2025-150X,2026-07-08T09:56:20.795712,14.98328856,.0003834,70.0003,189.9192,265.1182,94.9539,0,U,64811,999,5460,.23099721E-3,.2664E-4,0
STARLINK-34644,2025-150Y,2026-07-09T17:23:13.742304,14.98336046,.00037473,69.9991,186.8216,262.5456,97.5278,0,U,64812,999,5479,.21061536E-3,.2421E-4,0
STARLINK-34685,2025-150Z,2026-07-09T00:09:49.253184,14.98341508,.00031951,69.9995,188.7743,269.0809,90.9984,0,U,64813,999,5468,.23484843E-3,.2711E-4,0
STARLINK-34668,2025-150AA,2026-07-09T16:35:09.585024,14.98332834,.00036752,70.0002,186.7479,267.9470,92.1268,0,U,64814,999,5478,.1538429E-3,.1743E-4,0
STARLINK-34667,2025-150AB,2026-07-09T16:59:11.575104,14.98337519,.00034466,69.9979,186.8061,267.7473,92.3292,0,U,64815,999,5479,.26219735E-3,.3037E-4,0
STARLINK-34723,2025-152A,2026-07-10T01:01:05.929536,15.05658663,.00026203,97.2832,44.1685,88.7579,271.3949,0,U,64842,999,5382,.23928968E-3,.3399E-4,0
STARLINK-34725,2025-152B,2026-07-10T00:37:09.561504,15.05659973,.00021028,97.2846,44.1966,82.1735,277.9732,0,U,64843,999,5382,.1103062E-3,.1536E-4,0
STARLINK-34709,2025-152C,2026-07-10T00:41:09.291264,15.05658811,.00023517,97.2848,44.1874,85.0821,275.0675,0,U,64844,999,5382,.17580935E-3,.2482E-4,0
STARLINK-34706,2025-152D,2026-07-10T00:57:07.297920,15.05663945,.0003087,97.2844,44.1727,88.0273,272.1308,0,U,64845,999,5382,.22994789E-3,.3264E-4,0
STARLINK-34736,2025-152E,2026-07-10T01:40:57.589536,15.05668643,.00020852,97.2873,44.2784,89.9444,270.2023,0,U,64846,999,5383,.28038318E-3,.3993E-4,0
STARLINK-34746,2025-152F,2026-07-09T13:03:21.931776,15.05659310,.00021577,97.2862,43.7771,76.5198,283.6270,0,U,64847,999,5375,.89707697E-3,.12914E-3,0
STARLINK-34748,2025-152G,2026-07-10T01:29:00.038400,15.05660490,.00029335,97.2866,44.2967,85.0627,275.0935,0,U,64848,999,5383,.18636504E-3,.2634E-4,0
STARLINK-34756,2025-152H,2026-07-10T00:17:13.571232,15.05662359,.00020405,97.2865,44.2284,86.2187,273.9274,0,U,64849,999,5382,.28755085E-3,.4096E-4,0
STARLINK-34757,2025-152J,2026-07-10T00:29:12.624000,15.05657733,.00020615,97.2849,44.1975,83.8127,276.3335,0,U,64850,999,5382,.18770937E-3,.2654E-4,0
STARLINK-34722,2025-152K,2026-07-10T00:45:09.670752,15.05652507,.00020092,97.2851,44.1829,83.6699,276.4757,0,U,64851,999,5382,.88005509E-4,.1214E-4,0
STARLINK-34564,2025-152L,2026-07-10T06:44:01.849344,15.05669749,.00017845,97.2862,44.4583,93.7585,266.3847,0,U,64852,999,5386,.6282695E-3,.9025E-4,0
STARLINK-34676,2025-152M,2026-07-09T12:03:31.062240,15.05666913,.00024402,97.2859,43.6769,66.4598,293.6885,0,U,64853,999,5374,.14329037E-3,.2013E-4,0
STARLINK-34682,2025-152N,2026-07-10T01:17:02.520096,15.05665677,.0002667,97.2861,44.3132,78.2087,281.9440,0,U,64854,999,5383,.21049616E-3,.2983E-4,0
STARLINK-34631,2025-152P,2026-07-10T00:25:11.729568,15.05652261,.0001616,97.2853,44.2025,90.4633,269.6780,0,U,64855,999,5382,.40263711E-3,.5758E-4,0
STARLINK-34578,2025-152Q,2026-07-09T12:23:28.669056,15.05657522,.00024367,97.2862,43.8217,89.7583,270.3924,0,U,64856,999,5375,.15264826E-3,.2147E-4,0
STARLINK-34683,2025-152R,2026-07-10T00:09:15.009408,15.05669733,.00019182,97.2875,44.2241,81.9181,278.2264,0,U,64857,999,5382,.32941239E-3,.4702E-4,0
STARLINK-34654,2025-152S,2026-07-10T07:35:51.520992,15.05663445,.00026631,97.2866,44.5561,88.4888,271.6645,0,U,64858,999,5387,.2241974E-3,.3181E-4,0
STARLINK-34575,2025-152T,2026-07-09T12:19:29.441280,15.05659891,.00022105,97.2854,43.8168,88.7735,271.3746,0,U,64859,999,5375,.15011112E-3,.2111E-4,0
STARLINK-34570,2025-152U,2026-07-10T07:15:56.288448,15.05661386,.00026119,97.2849,44.4371,83.5218,276.6307,0,U,64860,999,5386,.4760985E-3,.6822E-4,0
STARLINK-34651,2025-152V,2026-07-10T00:33:11.490624,15.05655644,.00018675,97.2851,44.2167,81.8129,278.3311,0,U,64861,999,5382,.78151842E-4,.1072E-4,0
STARLINK-34684,2025-152W,2026-07-10T01:32:59.152128,15.05659956,.00020624,97.2863,44.3009,93.2611,266.8852,0,U,64862,999,5383,.82093646E-4,.1129E-4,0
STARLINK-34690,2025-152X,2026-07-10T01:21:01.540512,15.05665775,.00023284,97.2851,44.3111,90.5480,269.6014,0,U,64863,999,5383,.20367035E-3,.2885E-4,0
STARLINK-34628,2025-152Y,2026-07-09T12:51:22.398624,15.05658172,.00022751,97.2876,43.7903,87.3007,272.8481,0,U,64864,999,5375,.10072763E-3,.1398E-4,0
STARLINK-34544,2025-152Z,2026-07-10T01:24:59.982912,15.05654177,.00019976,97.2855,44.3005,87.5956,272.5501,0,U,64865,999,5383,-.37019375E-3,-.5394E-4,0
STARLINK-34647,2025-157A,2026-07-08T07:02:58.967520,15.34410592,.00012251,53.1577,144.4286,74.8130,285.3008,0,U,64904,999,5459,.48798818E-3,.16152E-3,0
STARLINK-34273,2025-157B,2026-07-10T05:44:42.540000,15.34402789,.00008869,53.1639,135.2350,109.5912,250.5186,0,U,64905,999,5491,.43106203E-3,.14217E-3,0
STARLINK-34713,2025-157C,2026-07-09T10:19:53.729472,15.34415447,.00014925,53.1567,139.4326,84.6490,275.4683,0,U,64906,999,5472,.57632824E-3,.19155E-3,0
STARLINK-34712,2025-157D,2026-07-09T06:23:09.065760,15.34429436,.00015179,53.1583,138.4096,116.9723,243.1435,0,U,64907,999,5477,.67604727E-3,.22555E-3,0
STARLINK-34702,2025-157E,2026-07-08T06:05:35.136096,15.31724251,.00016431,53.1573,144.8847,73.0301,287.0880,0,U,64908,999,5459,.38355781E-3,.11564E-3,0
STARLINK-34687,2025-157F,2026-07-09T05:41:32.853120,15.34434448,.00020638,53.1585,140.3568,72.1203,288.0024,0,U,64909,999,5469,.50334467E-3,.16687E-3,0
STARLINK-34642,2025-157G,2026-07-10T06:04:43.748832,15.31768824,.0001555,53.1547,135.3287,223.0807,137.0073,0,U,64910,999,5490,.94711635E-3,.29204E-3,0
STARLINK-34718,2025-157H,2026-07-10T06:45:18.831744,15.34390707,.00014058,53.1580,135.5001,94.1242,265.9922,0,U,64911,999,5490,.22861652E-3,.7353E-4,0
STARLINK-34711,2025-157J,2026-07-10T07:27:36.038592,15.34413822,.00011686,53.1577,134.9753,95.1636,264.9500,0,U,64912,999,5491,.86171141E-3,.28863E-3,0
STARLINK-34659,2025-157K,2026-07-08T07:32:48.735744,15.31737795,.00018265,53.1572,144.5532,78.7590,281.3617,0,U,64913,999,5455,.63509655E-3,.19417E-3,0
STARLINK-34571,2025-157L,2026-07-10T01:45:44.744256,15.34397212,.0001236,53.1582,136.3342,89.0789,271.0356,0,U,64914,999,5482,.60327878E-3,.20059E-3,0
STARLINK-34636,2025-157M,2026-07-10T07:24:33.886656,15.34398849,.00015698,53.1581,134.9551,105.6282,254.4894,0,U,64915,999,5491,.35174195E-3,.11526E-3,0
STARLINK-34695,2025-157N,2026-07-10T05:09:12.050784,15.34410396,.00023316,53.1578,127.9861,75.9102,284.2159,0,U,64916,999,5500,.80699299E-3,.26997E-3,0
STARLINK-34653,2025-157P,2026-07-10T05:51:25.295328,15.31729050,.00005505,53.1596,135.9705,118.0907,242.0150,0,U,64917,999,5484,.29451887E-3,.8793E-4,0
STARLINK-34611,2025-157Q,2026-07-09T14:00:40.987008,15.34408813,.00008292,53.1606,138.2539,98.9600,261.1496,0,U,64918,999,5480,.23450985E-3,.7557E-4,0
STARLINK-34599,2025-157R,2026-07-09T06:05:46.915008,15.34434579,.00018589,53.1592,140.4493,65.7965,294.3232,0,U,64919,999,5474,.60567584E-3,.20165E-3,0
STARLINK-34069,2025-157S,2026-07-10T06:18:02.309472,15.34309695,.00015387,53.1578,135.3813,118.5150,241.6008,0,U,64920,999,5490,.1010746E-2,.3383E-3,0
STARLINK-34699,2025-157T,2026-07-10T05:35:37.639392,15.34390414,.00013157,53.1592,135.1946,93.6700,266.4453,0,U,64921,999,5490,.66562142E-3,.22173E-3,0
STARLINK-34700,2025-157U,2026-07-10T05:23:39.283872,15.34391831,.00048518,53.1591,135.8530,67.9520,292.1998,0,U,64922,999,5484,.50738381E-3,.16804E-3,0
STARLINK-34643,2025-157V,2026-07-10T06:05:55.575744,15.34407095,.000189,53.1576,135.3256,95.2126,264.9092,0,U,64923,999,5490,.74664557E-3,.2494E-3,0
STARLINK-34199,2025-157W,2026-07-10T07:45:25.288704,15.31743149,.00011428,53.1621,135.0422,116.5961,243.5157,0,U,64924,999,5486,.4930997E-3,.14988E-3,0
STARLINK-34579,2025-157X,2026-07-09T06:42:00.368352,15.34416310,.00015771,53.1533,139.9086,81.6303,278.4878,0,U,64925,999,5475,.61337523E-3,.20415E-3,0
STARLINK-34543,2025-157Y,2026-07-09T06:15:17.829792,15.31737635,.00013095,53.1586,140.4969,92.8453,267.2699,0,U,64926,999,5469,.47938239E-3,.14557E-3,0
STARLINK-34661,2025-157Z,2026-07-10T07:36:41.563008,15.34437478,.00011534,53.1573,134.9984,81.3041,278.8092,0,U,64927,999,5463,.73794356E-3,.24668E-3,0
STARLINK-34248,2025-157AA,2026-07-10T05:20:35.870496,15.34402334,.0001221,53.1584,135.8372,100.0620,260.0520,0,U,64928,999,5489,.7078983E-3,.23618E-3,0
